ONEWEB-0168             
1 48068U 21025AC  23308.79834031  .00000173  00000+0  43792-3 0  9995
2 48068  87.8926 150.3372 0001619  86.7038 273.4276 13.13468896128144
ONEWEB-0173             
1 48069U 21025AD  23308.94434473  .00000372  00000+0  98377-3 0  9999
2 48069  87.8928 150.3244 0001116  97.6208 262.5048 13.13470287128409
ONEWEB-0171             
1 48070U 21025AE  23309.05437972 -.00000286  00000+0 -81792-3 0  9990
2 48070  87.8995 150.3116 0001317  82.7184 277.4095 13.13472151128234
ONEWEB-0172             
1 48071U 21025AF  23309.49345737  .00000030  00000+0  47423-4 0  9995
2 48071  87.8993 150.1933 0001181  85.7066 274.4198 13.13471366129182
ONEWEB-0174             
1 48072U 21025AG  23308.94223353  .00000289  00000+0  75747-3 0  9999
2 48072  87.8993 150.3177 0001755  87.0594 273.0735 13.13465689128433
ONEWEB-0175             
1 48073U 21025AH  23308.81738540 -.00000261  00000+0 -74887-3 0  9991
2 48073  87.8999 150.3372 0001249  67.9682 292.1580 13.13468596128070
ONEWEB-0177             
1 48074U 21025AJ  23309.51565816 -.00000268  00000+0 -76992-3 0  9990
2 48074  87.8997 150.2030 0001330 104.2767 255.8510 13.13469489128351
ONEWEB-0178             
1 48075U 21025AK  23309.07659041  .00000189  00000+0  48284-3 0  9999
2 48075  87.8992 150.2943 0001473  93.3511 266.7787 13.13471388128340
